{"type":"FeatureCollection","name":"MOC Department Confirmed Rayong STC-VSD","source":"User-supplied MOC.zip (STC/VSD/Shapefile/ยืนยันกรม), reprojected from EPSG:32647 to EPSG:4326","features":[{"type":"Feature","properties":{"plot":"13-STC","area_rai":266.475,"boundary_quality":"verified","geometry_area_rai":266.475,"boundary_source":"MOC.zip / ยืนยันกรม","source_crs":"EPSG:32647","boundary_version":"2026-10-09"},"geometry":{"type":"Polygon","coordinates":[[[101.6887434,12.7120026],[101.6896484,12.7149294],[101.6900238,12.7147449],[101.690302,12.7140736],[101.6911888,12.7135316],[101.6910663,12.7132528],[101.6919278,12.7129279],[101.6920978,12.7124654],[101.6928711,12.7116264],[101.6928787,12.7114728],[101.692468,12.7109259],[101.6909941,12.7098929],[101.6895409,12.7090856],[101.6896868,12.7089576],[101.6932025,12.7107649],[101.6945466,12.7082127],[101.6973406,12.7096387],[101.69746,12.7096194],[101.6973608,12.7089429],[101.6969908,12.708757],[101.6944294,12.7066962],[101.6907266,12.7054691],[101.6899211,12.706742],[101.6893128,12.7075251],[101.6882714,12.7082493],[101.6878895,12.7086778],[101.6891682,12.709523],[101.6895111,12.7097544],[101.6900377,12.710031],[101.6900289,12.7099821],[101.6893372,12.7094719],[101.6893138,12.7092777],[101.6894403,12.7090041],[101.6908147,12.7064707],[101.6912305,12.7056849],[101.691299,12.7057122],[101.690924,12.7063752],[101.6929682,12.7074038],[101.6945081,12.7081977],[101.6944741,12.7082353],[101.6929522,12.7074588],[101.6910091,12.7064547],[101.6908445,12.706489],[101.6894653,12.7090141],[101.6893487,12.7093169],[101.6893846,12.7094656],[101.6900609,12.709973],[101.6900913,12.7100726],[101.6902507,12.71034],[101.6905594,12.7112686],[101.6911896,12.7132026],[101.6911612,12.7132122],[101.6905109,12.7112831],[101.6901044,12.7101912],[101.688493,12.7107235],[101.6883965,12.7107979],[101.6886929,12.7117965],[101.6886985,12.7118757],[101.6883333,12.7107636],[101.689929,12.7102128],[101.6900463,12.7100788],[101.6900448,12.7100706],[101.6882883,12.7107244],[101.6887434,12.7120026]],[[101.689138,12.7127755],[101.6890904,12.7126224],[101.6898975,12.7123703],[101.6899175,12.7125146],[101.6896697,12.7125804],[101.6895693,12.7126627],[101.689138,12.7127755]]]}},{"type":"Feature","properties":{"plot":"14(1)-STC","area_rai":14.081,"boundary_quality":"verified","geometry_area_rai":14.081,"boundary_source":"MOC.zip / ยืนยันกรม","source_crs":"EPSG:32647","boundary_version":"2026-10-09"},"geometry":{"type":"Polygon","coordinates":[[[101.6717051,12.6912161],[101.6731646,12.6926468],[101.6737912,12.6918455],[101.6722874,12.6905869],[101.6717051,12.6912161]]]}},{"type":"Feature","properties":{"plot":"14-STC","area_rai":6.753,"boundary_quality":"verified","geometry_area_rai":6.753,"boundary_source":"MOC.zip / ยืนยันกรม","source_crs":"EPSG:32647","boundary_version":"2026-10-09"},"geometry":{"type":"Polygon","coordinates":[[[101.7009113,12.7107877],[101.7007867,12.7100575],[101.6996882,12.7102408],[101.6999168,12.7111372],[101.7009113,12.7107877]]]}},{"type":"Feature","properties":{"plot":"14-VSD","area_rai":49.377,"boundary_quality":"verified","geometry_area_rai":49.377,"boundary_source":"MOC.zip / ยืนยันกรม","source_crs":"EPSG:32647","boundary_version":"2026-10-09"},"geometry":{"type":"Polygon","coordinates":[[[101.7069147,12.7196047],[101.7045756,12.7194299],[101.7053099,12.7209942],[101.7085831,12.7198677],[101.7088902,12.721057],[101.7094393,12.7207713],[101.7096303,12.7196944],[101.7096189,12.7194867],[101.7094235,12.71929],[101.7074979,12.7181985],[101.7069147,12.7196047]]]}},{"type":"Feature","properties":{"plot":"15-STC","area_rai":7.101,"boundary_quality":"verified","geometry_area_rai":7.101,"boundary_source":"MOC.zip / ยืนยันกรม","source_crs":"EPSG:32647","boundary_version":"2026-10-09"},"geometry":{"type":"Polygon","coordinates":[[[101.7885987,12.7406465],[101.7889073,12.7391234],[101.7881385,12.7389504],[101.7882329,12.7395974],[101.7880688,12.7405664],[101.7885987,12.7406465]]]}},{"type":"Feature","properties":{"plot":"15-VSD","area_rai":54.525,"boundary_quality":"verified","geometry_area_rai":54.525,"boundary_source":"MOC.zip / ยืนยันกรม","source_crs":"EPSG:32647","boundary_version":"2026-10-09"},"geometry":{"type":"Polygon","coordinates":[[[101.7075056,12.7267263],[101.7075635,12.7269786],[101.7065366,12.7273324],[101.7046564,12.7279208],[101.7049235,12.7288124],[101.7044467,12.7289798],[101.7044946,12.729151],[101.7068335,12.7284315],[101.7069961,12.729008],[101.7076378,12.7287756],[101.7077797,12.7291445],[101.7081901,12.728797],[101.7081689,12.7285262],[101.7082856,12.728254],[101.708506,12.7282066],[101.708718,12.7282406],[101.7089093,12.7280579],[101.7089643,12.7271721],[101.7094363,12.726562],[101.7093687,12.7262646],[101.7085619,12.7265438],[101.7082485,12.7256256],[101.7075056,12.7267263]]]}},{"type":"Feature","properties":{"plot":"16-STC","area_rai":26.81,"boundary_quality":"verified","geometry_area_rai":26.81,"boundary_source":"MOC.zip / ยืนยันกรม","source_crs":"EPSG:32647","boundary_version":"2026-10-09"},"geometry":{"type":"Polygon","coordinates":[[[101.7185908,12.7307139],[101.7178941,12.7292396],[101.7180675,12.7291023],[101.7181024,12.7289303],[101.7182773,12.7289285],[101.7183307,12.7287653],[101.7181807,12.7285049],[101.7175015,12.7286655],[101.7172167,12.7287136],[101.7168503,12.7280037],[101.7159584,12.728076],[101.7158675,12.7281763],[101.7163292,12.7291924],[101.7168074,12.7291604],[101.7169735,12.7292039],[101.7172078,12.7304662],[101.7174492,12.7306715],[101.7177805,12.7306681],[101.7181434,12.7310438],[101.7184278,12.7309686],[101.7185908,12.7307139]]]}},{"type":"Feature","properties":{"plot":"16-VSD","area_rai":16.683,"boundary_quality":"verified","geometry_area_rai":16.683,"boundary_source":"MOC.zip / ยืนยันกรม","source_crs":"EPSG:32647","boundary_version":"2026-10-09"},"geometry":{"type":"Polygon","coordinates":[[[101.6991982,12.7295483],[101.6992197,12.7298462],[101.6989914,12.7300112],[101.6989619,12.7315653],[101.6994237,12.7317232],[101.6996702,12.73154],[101.6993858,12.7298807],[101.6999539,12.729649],[101.7002882,12.7299347],[101.7016632,12.7294329],[101.7014552,12.728911],[101.6991982,12.7295483]]]}},{"type":"Feature","properties":{"plot":"17-STC","area_rai":278.893,"boundary_quality":"verified","geometry_area_rai":278.893,"boundary_source":"MOC.zip / ยืนยันกรม","source_crs":"EPSG:32647","boundary_version":"2026-10-09"},"geometry":{"type":"MultiPolygon","coordinates":[[[[101.67946,12.7235245],[101.6789962,12.7231679],[101.6785786,12.7219615],[101.6782394,12.7212061],[101.6782248,12.7206913],[101.677954,12.7203147],[101.6766779,12.7214839],[101.6762009,12.7216242],[101.6756095,12.7213953],[101.6742926,12.7213002],[101.6730243,12.7205722],[101.6726862,12.7208015],[101.6724966,12.7211467],[101.6721208,12.721295],[101.6720444,12.7219101],[101.6709942,12.7226796],[101.6707659,12.7228445],[101.6708512,12.7230875],[101.6709891,12.7230681],[101.6712884,12.7235348],[101.6714765,12.7239214],[101.6715962,12.7239202],[101.6723735,12.7252132],[101.6727205,12.7258331],[101.6736672,12.7274767],[101.6737403,12.7274308],[101.6758086,12.7263349],[101.675949,12.7265593],[101.6771913,12.7265648],[101.6774204,12.7264722],[101.6771476,12.7250295],[101.6788704,12.7243345],[101.6793876,12.7252766],[101.6797889,12.7250479],[101.6804842,12.7246615],[101.6805373,12.7244622],[101.6802586,12.724203],[101.6796296,12.7239022],[101.67946,12.7235245]],[[101.6727482,12.720986],[101.6727539,12.7208469],[101.6730308,12.7207052],[101.673456,12.7209527],[101.6737856,12.7211176],[101.6739564,12.7212829],[101.6741257,12.7216058],[101.6741233,12.7216883],[101.6735303,12.7220379],[101.6733831,12.7220711],[101.6730857,12.7215986],[101.6759891,12.7265583],[101.675949,12.7265583],[101.6758099,12.726335],[101.6730167,12.7216112],[101.6730708,12.721575],[101.6730491,12.7215405],[101.6729606,12.721355],[101.6727482,12.720986]],[[101.6757547,12.7220714],[101.675681,12.7220721],[101.6748943,12.7225137],[101.6748846,12.7224686],[101.6757351,12.7219632],[101.677454,12.7249049],[101.677409,12.7249224],[101.6757547,12.7220714]],[[101.6711048,12.7226965],[101.6721079,12.7244571],[101.6738038,12.7273489],[101.6738626,12.7273653],[101.6737997,12.7273987],[101.6720715,12.7244936],[101.6710318,12.7227515],[101.6711048,12.7226965]]],[[[101.6813506,12.7253023],[101.6813039,12.7253351],[101.6808412,12.7254951],[101.6803384,12.7256747],[101.6799718,12.725814],[101.6797147,12.7258708],[101.6797335,12.7259067],[101.6799237,12.726492],[101.6812093,12.7262351],[101.6821982,12.7257553],[101.6823063,12.7255374],[101.6822482,12.7252669],[101.6816781,12.7253089],[101.6813651,12.725294],[101.6813506,12.7253023]]]]}},{"type":"Feature","properties":{"plot":"17-VSD","area_rai":30.691,"boundary_quality":"verified","geometry_area_rai":30.691,"boundary_source":"MOC.zip / ยืนยันกรม","source_crs":"EPSG:32647","boundary_version":"2026-10-09"},"geometry":{"type":"Polygon","coordinates":[[[101.7005121,12.731965],[101.7018243,12.7316083],[101.7020352,12.7315339],[101.7022354,12.7313241],[101.7016914,12.730354],[101.7028743,12.7299625],[101.7024176,12.7294161],[101.701362,12.7296618],[101.7003447,12.7300606],[101.7018578,12.7312918],[101.7017847,12.7313468],[101.7002169,12.7301613],[101.7000322,12.7300999],[101.699867,12.7301378],[101.6997392,12.7302384],[101.6996947,12.7303744],[101.7005121,12.731965]]]}},{"type":"Feature","properties":{"plot":"18(1)-STC","area_rai":29.156,"boundary_quality":"verified","geometry_area_rai":29.156,"boundary_source":"MOC.zip / ยืนยันกรม","source_crs":"EPSG:32647","boundary_version":"2026-10-09"},"geometry":{"type":"Polygon","coordinates":[[[101.6639383,12.7273038],[101.6644687,12.7269913],[101.664882,12.7277912],[101.6659048,12.7270401],[101.6664873,12.7281815],[101.6670183,12.7279142],[101.66605,12.7259636],[101.6655286,12.7262579],[101.6654046,12.7258436],[101.6649792,12.7256401],[101.6636463,12.7266653],[101.6639383,12.7273038]]]}},{"type":"Feature","properties":{"plot":"18-STC","area_rai":32.011,"boundary_quality":"verified","geometry_area_rai":32.011,"boundary_source":"MOC.zip / ยืนยันกรม","source_crs":"EPSG:32647","boundary_version":"2026-10-09"},"geometry":{"type":"MultiPolygon","coordinates":[[[[101.6896215,12.7307118],[101.6890514,12.7307538],[101.6884516,12.7305972],[101.6878425,12.7304318],[101.6876965,12.731427],[101.6877201,12.7313142],[101.6892623,12.7317228],[101.6898508,12.7315945],[101.6898804,12.7317029],[101.6896215,12.7307118]]],[[[101.6878688,12.7294378],[101.6874923,12.7295139],[101.686974,12.7283628],[101.6872958,12.7274562],[101.6874883,12.727391],[101.6874686,12.7272647],[101.6859369,12.7268737],[101.6859262,12.7276056],[101.6868674,12.7295925],[101.6870143,12.7295639],[101.6872065,12.7303389],[101.6871583,12.7301316],[101.6875629,12.7301004],[101.6883106,12.7303186],[101.6884516,12.7305972],[101.6878688,12.7294378]],[[101.6860245,12.7273245],[101.6865306,12.7273284],[101.6865,12.7279159],[101.6860668,12.7279018],[101.6860245,12.7273245]],[[101.6862408,12.7282635],[101.6861214,12.7280108],[101.6871184,12.7279526],[101.6870326,12.7281935],[101.6862408,12.7282635]],[[101.6873496,12.7291995],[101.6869639,12.7291489],[101.686898,12.729005],[101.687245,12.7289655],[101.6873496,12.7291995]]]]}},{"type":"Feature","properties":{"plot":"19-STC","area_rai":16.969,"boundary_quality":"verified","geometry_area_rai":16.969,"boundary_source":"MOC.zip / ยืนยันกรม","source_crs":"EPSG:32647","boundary_version":"2026-10-09"},"geometry":{"type":"Polygon","coordinates":[[[101.660357,12.7275304],[101.6611913,12.7266364],[101.6618976,12.7260664],[101.6615877,12.7254357],[101.6603658,12.7265308],[101.6598379,12.7259176],[101.6589777,12.726387],[101.6596367,12.7269224],[101.6598541,12.7269438],[101.6601306,12.7272048],[101.6601842,12.727421],[101.660357,12.7275304]]]}},{"type":"Feature","properties":{"plot":"20-STC","area_rai":32.414,"boundary_quality":"verified","geometry_area_rai":32.414,"boundary_source":"MOC.zip / ยืนยันกรม","source_crs":"EPSG:32647","boundary_version":"2026-10-09"},"geometry":{"type":"Polygon","coordinates":[[[101.6621511,12.7259963],[101.6627207,12.7256684],[101.6627973,12.725405],[101.6630387,12.7251922],[101.6634098,12.7250658],[101.6636475,12.724887],[101.6642641,12.7243208],[101.6643404,12.7238982],[101.6644957,12.7238071],[101.6655103,12.7219211],[101.664763,12.7224885],[101.6648596,12.7229547],[101.6632101,12.7233701],[101.6627487,12.7235486],[101.6624677,12.7239579],[101.6625739,12.7244213],[101.6617769,12.7247779],[101.6621511,12.7259963]]]}},{"type":"Feature","properties":{"plot":"21-STC","area_rai":149.857,"boundary_quality":"verified","geometry_area_rai":149.857,"boundary_source":"MOC.zip / ยืนยันกรม","source_crs":"EPSG:32647","boundary_version":"2026-10-09"},"geometry":{"type":"Polygon","coordinates":[[[101.7871229,12.7613823],[101.7882375,12.7614699],[101.7885429,12.7616293],[101.7894726,12.7624867],[101.7899878,12.7624722],[101.7903175,12.7623242],[101.7904783,12.7618798],[101.7902541,12.7615751],[101.7898783,12.7617146],[101.7895717,12.7614558],[101.7895075,12.7606345],[101.7893663,12.7603469],[101.7894722,12.7599303],[101.7896789,12.7594764],[101.7904394,12.7591793],[101.7907247,12.7591763],[101.7913726,12.7595127],[101.7915339,12.7599537],[101.7916153,12.7615065],[101.7921215,12.7615102],[101.7930502,12.760597],[101.7934756,12.7599422],[101.7934881,12.7594091],[101.7925518,12.7579466],[101.7925947,12.7576661],[101.7931367,12.7575791],[101.7937371,12.7569404],[101.7946921,12.7567496],[101.7948735,12.7565129],[101.7949171,12.7562866],[101.7940955,12.7552203],[101.793721,12.7554772],[101.7931111,12.7544087],[101.7906449,12.7552568],[101.7908954,12.7562659],[101.7912999,12.7562435],[101.7915967,12.7564481],[101.7914176,12.7569017],[101.791049,12.7568604],[101.7908999,12.7562839],[101.7910878,12.7570407],[101.7895582,12.7575515],[101.7896739,12.7575163],[101.7905306,12.7590971],[101.7904025,12.7591707],[101.7895511,12.7575539],[101.788658,12.7578522],[101.7886804,12.7579694],[101.7882294,12.7582181],[101.788184,12.758607],[101.7880957,12.7586079],[101.7891176,12.7586423],[101.7893741,12.7593803],[101.7891669,12.759789],[101.7884291,12.7604833],[101.7878145,12.7606614],[101.7874535,12.7604755],[101.7865416,12.7612439],[101.7867748,12.7615215],[101.7871229,12.7613823]],[[101.7911777,12.7551699],[101.7913415,12.7558366],[101.7909192,12.7559314],[101.7906449,12.7552568],[101.7911777,12.7551699]],[[101.7922646,12.7552577],[101.7923893,12.7557171],[101.7916734,12.7558963],[101.7916876,12.7555077],[101.7922646,12.7552577]],[[101.7917595,12.7570336],[101.7921148,12.7575447],[101.791712,12.7577387],[101.7913498,12.7574354],[101.7917595,12.7570336]],[[101.7909713,12.757331],[101.7902485,12.757709],[101.7901267,12.7575115],[101.7909331,12.7571959],[101.7909713,12.757331]],[[101.7910692,12.7578629],[101.7915158,12.7583098],[101.7913904,12.7586183],[101.7908537,12.758353],[101.7909592,12.7579002],[101.7910692,12.7578629]],[[101.7921741,12.7595946],[101.7916516,12.7597808],[101.7915475,12.7595199],[101.7920698,12.7593157],[101.7921741,12.7595946]],[[101.7930562,12.7544364],[101.7931229,12.7546435],[101.792786,12.7549722],[101.7924544,12.7549396],[101.7922866,12.7547517],[101.7930562,12.7544364]],[[101.7932034,12.756106],[101.7928325,12.755857],[101.7928572,12.7555857],[101.7933598,12.7552642],[101.7936412,12.755749],[101.7936715,12.7568327],[101.7934511,12.7568802],[101.7932034,12.756106]],[[101.7944154,12.7558583],[101.794661,12.7564338],[101.7945051,12.7564806],[101.7942691,12.7559411],[101.7944154,12.7558583]],[[101.7938926,12.7560174],[101.7940854,12.7559792],[101.7941926,12.7565201],[101.793917,12.7565591],[101.7938926,12.7560174]],[[101.7930246,12.7565866],[101.7925948,12.7568351],[101.7922314,12.7564234],[101.7924675,12.7561408],[101.7927984,12.7561012],[101.7930246,12.7565866]],[[101.7933894,12.7571247],[101.7928319,12.7574739],[101.7927452,12.7571225],[101.7930922,12.756875],[101.7933894,12.7571247]],[[101.7924975,12.7580285],[101.7918843,12.7583421],[101.7919102,12.7581882],[101.7924938,12.7576943],[101.7924975,12.7580285]],[[101.791913,12.7584411],[101.7925259,12.7581004],[101.7928627,12.7586027],[101.7920802,12.7585839],[101.791913,12.7584411]],[[101.7933137,12.7594471],[101.7933143,12.7595012],[101.7921501,12.7599201],[101.7921494,12.7598568],[101.7933137,12.7594471]]]}},{"type":"Feature","properties":{"plot":"22(1)-STC","area_rai":16.863,"boundary_quality":"verified","geometry_area_rai":16.863,"boundary_source":"MOC.zip / ยืนยันกรม","source_crs":"EPSG:32647","boundary_version":"2026-10-09"},"geometry":{"type":"Polygon","coordinates":[[[101.7963382,12.7566419],[101.7970726,12.7564805],[101.7964828,12.7538943],[101.7955726,12.7539672],[101.7963382,12.7566419]]]}},{"type":"Feature","properties":{"plot":"22-STC","area_rai":28.573,"boundary_quality":"verified","geometry_area_rai":28.573,"boundary_source":"MOC.zip / ยืนยันกรม","source_crs":"EPSG:32647","boundary_version":"2026-10-09"},"geometry":{"type":"Polygon","coordinates":[[[101.802922,12.7561566],[101.802921,12.7560663],[101.8023013,12.7557838],[101.8020875,12.7555873],[101.8011161,12.756799],[101.8005766,12.7579519],[101.8015633,12.7581312],[101.801653,12.7587535],[101.8026686,12.7590589],[101.8032436,12.7586192],[101.8031208,12.7583314],[101.8021433,12.757312],[101.802922,12.7561566]],[[101.8020162,12.7558049],[101.8026095,12.756196],[101.8020384,12.7569789],[101.8014408,12.7565407],[101.8016299,12.7563034],[101.8020162,12.7558049]]]}},{"type":"Feature","properties":{"plot":"23(1)-STC","area_rai":9.12,"boundary_quality":"verified","geometry_area_rai":9.12,"boundary_source":"MOC.zip / ยืนยันกรม","source_crs":"EPSG:32647","boundary_version":"2026-10-09"},"geometry":{"type":"Polygon","coordinates":[[[101.6579327,12.6710096],[101.660149,12.6717914],[101.6596297,12.6705138],[101.6579327,12.6710096]]]}},{"type":"Feature","properties":{"plot":"23-STC","area_rai":51.392,"boundary_quality":"verified","geometry_area_rai":51.392,"boundary_source":"MOC.zip / ยืนยันกรม","source_crs":"EPSG:32647","boundary_version":"2026-10-09"},"geometry":{"type":"Polygon","coordinates":[[[101.7219594,12.7161081],[101.7234046,12.7161565],[101.7249692,12.7161855],[101.7256259,12.7156368],[101.726464,12.7148422],[101.7249448,12.7147585],[101.7234903,12.7147012],[101.7234928,12.7140688],[101.7235553,12.7138875],[101.7233778,12.7136363],[101.7227183,12.7139232],[101.7224543,12.7141879],[101.7220534,12.7145624],[101.7214511,12.7150383],[101.7219594,12.7161081]]]}}]}