{"type":"FeatureCollection","features":[{"type":"Feature","properties":{"plot":"13-STC","new_water_rai":194.91},"geometry":{"type":"MultiPolygon","coordinates":[[[[101.69033,12.706241],[101.690147,12.706352],[101.69015,12.706604],[101.690334,12.706602],[101.69033,12.706241]]],[[[101.689785,12.706885],[101.689787,12.70715],[101.689971,12.707148],[101.689969,12.706967],[101.690153,12.706965],[101.69015,12.706604],[101.689785,12.706885]]],[[[101.689603,12.707152],[101.689607,12.707513],[101.689791,12.707511],[101.689787,12.70715],[101.689603,12.707152]]],[[[101.689425,12.707696],[101.689609,12.707694],[101.689607,12.707513],[101.689423,12.707515],[101.689425,12.707696]]],[[[101.690159,12.707507],[101.689793,12.707692],[101.689797,12.708053],[101.689926,12.708052],[101.690159,12.707507]]],[[[101.689799,12.708234],[101.689797,12.708053],[101.689613,12.708055],[101.689615,12.708236],[101.689799,12.708234]]],[[[101.689032,12.7077],[101.688509,12.708066],[101.688146,12.708612],[101.68788,12.70866],[101.689149,12.709487],[101.689436,12.70878],[101.689068,12.708783],[101.689067,12.708603],[101.688882,12.708604],[101.688879,12.708243],[101.689247,12.708239],[101.689243,12.707878],[101.689427,12.707876],[101.689425,12.707696],[101.689032,12.7077]]],[[[101.689436,12.70878],[101.689617,12.708416],[101.689433,12.708418],[101.689436,12.70878]]],[[[101.690192,12.710579],[101.690008,12.71058],[101.690009,12.710761],[101.689825,12.710763],[101.689823,12.710582],[101.688537,12.710776],[101.688924,12.712579],[101.689917,12.712424],[101.689184,12.712748],[101.689109,12.712612],[101.689145,12.713299],[101.689664,12.712933],[101.689662,12.712752],[101.689846,12.71275],[101.689844,12.71257],[101.690028,12.712568],[101.690027,12.712387],[101.690579,12.712381],[101.690385,12.71148],[101.690201,12.711482],[101.690192,12.710579]],[[101.688917,12.711856],[101.689101,12.711854],[101.689105,12.712216],[101.688921,12.712218],[101.688917,12.711856]],[[101.688907,12.710953],[101.688911,12.711314],[101.688727,12.711316],[101.688723,12.710955],[101.688907,12.710953]]],[[[101.689681,12.714559],[101.689676,12.714017],[101.689492,12.714019],[101.689486,12.713477],[101.689302,12.713478],[101.689532,12.71456],[101.689681,12.714559]]],[[[101.690228,12.714011],[101.690044,12.714013],[101.690046,12.714194],[101.69023,12.714192],[101.690228,12.714011]]],[[[101.689863,12.714376],[101.689865,12.714557],[101.689681,12.714559],[101.689683,12.714739],[101.690004,12.714736],[101.690047,12.714374],[101.689863,12.714376]]],[[[101.690878,12.705874],[101.69091,12.706235],[101.69106,12.705692],[101.690566,12.705697],[101.690512,12.706058],[101.690878,12.705874]]],[[[101.691248,12.706051],[101.691432,12.706049],[101.69143,12.705868],[101.691246,12.70587],[101.691248,12.706051]]],[[[101.690702,12.706599],[101.6907,12.706418],[101.690516,12.70642],[101.690518,12.7066],[101.690702,12.706599]]],[[[101.690418,12.707143],[101.690521,12.706953],[101.69052,12.706781],[101.690336,12.706783],[101.690418,12.707143]]],[[[101.695126,12.707276],[101.694942,12.707278],[101.69494,12.707098],[101.694572,12.707101],[101.69457,12.706921],[101.694386,12.706922],[101.694384,12.706742],[101.694016,12.706746],[101.694014,12.706565],[101.693092,12.706394],[101.693003,12.706214],[101.692538,12.706219],[101.692471,12.706039],[101.691984,12.706043],[101.69194,12.705863],[101.691614,12.705867],[101.691616,12.706047],[101.6918,12.706045],[101.691806,12.706587],[101.691622,12.706589],[101.691618,12.706228],[101.691252,12.706412],[101.691248,12.706051],[101.691017,12.706234],[101.691009,12.706415],[101.691992,12.706766],[101.691993,12.706913],[101.695323,12.708539],[101.695321,12.708358],[101.694951,12.708181],[101.694947,12.70782],[101.695683,12.707813],[101.695682,12.707681],[101.695313,12.707636],[101.695126,12.707276]],[[101.69199,12.706585],[101.692174,12.706584],[101.692176,12.706764],[101.691992,12.706766],[101.69199,12.706585]],[[101.694025,12.707649],[101.693841,12.707651],[101.693839,12.70747],[101.694023,12.707468],[101.694025,12.707649]]],[[[101.693976,12.709275],[101.693857,12.709096],[101.694041,12.709149],[101.694399,12.708213],[101.693844,12.707939],[101.693479,12.708196],[101.693474,12.707757],[101.692919,12.707483],[101.692739,12.707843],[101.692555,12.707844],[101.692549,12.707302],[101.691812,12.707129],[101.69181,12.706949],[101.690903,12.706488],[101.690524,12.707191],[101.690529,12.707684],[101.690345,12.707686],[101.690351,12.708228],[101.690167,12.70823],[101.690169,12.708411],[101.689985,12.708413],[101.689988,12.708774],[101.689804,12.708776],[101.689806,12.708956],[101.69036,12.709131],[101.690547,12.709398],[101.690544,12.70913],[101.690728,12.709128],[101.690724,12.709489],[101.691287,12.70978],[101.691468,12.709482],[101.691836,12.709478],[101.691656,12.709841],[101.69141,12.709844],[101.692398,12.710353],[101.692394,12.710014],[101.692578,12.710012],[101.692582,12.710374],[101.69244,12.710375],[101.693212,12.710774],[101.693976,12.709275]],[[101.691813,12.70731],[101.691629,12.707312],[101.691627,12.707131],[101.691812,12.707129],[101.691813,12.70731]],[[101.692576,12.709832],[101.692574,12.709651],[101.692758,12.709649],[101.69276,12.70983],[101.692576,12.709832]],[[101.692754,12.709288],[101.692938,12.709286],[101.692942,12.709647],[101.692758,12.709649],[101.692754,12.709288]],[[101.692937,12.709105],[101.693121,12.709103],[101.693122,12.709284],[101.692938,12.709286],[101.692937,12.709105]],[[101.693119,12.708923],[101.693115,12.708561],[101.693299,12.70856],[101.693303,12.708921],[101.693119,12.708923]],[[101.693297,12.708379],[101.693481,12.708377],[101.693483,12.708558],[101.693299,12.70856],[101.693297,12.708379]],[[101.690909,12.708765],[101.690905,12.708403],[101.691089,12.708401],[101.691093,12.708763],[101.690909,12.708765]],[[101.691087,12.708221],[101.691271,12.708219],[101.691273,12.7084],[101.691089,12.708401],[101.691087,12.708221]],[[101.691449,12.707675],[101.691447,12.707494],[101.691631,12.707492],[101.691635,12.707854],[101.691269,12.708038],[101.691265,12.707677],[101.691449,12.707675]]],[[[101.695509,12.708681],[101.696617,12.709068],[101.696619,12.709231],[101.69701,12.709425],[101.697357,12.709422],[101.697353,12.70906],[101.695869,12.707991],[101.695875,12.708533],[101.695507,12.708537],[101.695509,12.708681]]],[[[101.689812,12.709498],[101.69018,12.709495],[101.690182,12.709675],[101.690552,12.709852],[101.690554,12.710033],[101.690187,12.710118],[101.690372,12.710215],[101.690377,12.710705],[101.690628,12.711478],[101.690753,12.711476],[101.690803,12.712018],[101.690943,12.712016],[101.691153,12.713098],[101.691873,12.712973],[101.69286,12.711482],[101.691933,12.710561],[101.691851,12.710923],[101.691667,12.710925],[101.691666,12.710744],[101.691482,12.710746],[101.691478,12.710385],[101.691683,12.710383],[101.689531,12.709068],[101.68957,12.708959],[101.689441,12.709197],[101.689444,12.7095],[101.689628,12.7095],[101.68968,12.70968],[101.689812,12.709498]],[[101.692035,12.710921],[101.692223,12.711281],[101.691857,12.711465],[101.691851,12.710923],[101.692035,12.710921]],[[101.691303,12.71129],[101.691301,12.711109],[101.691485,12.711108],[101.691487,12.711288],[101.691303,12.71129]]],[[[101.690763,12.71238],[101.690579,12.712381],[101.69058,12.712562],[101.690765,12.71256],[101.690763,12.71238]]],[[[101.69095,12.712741],[101.690765,12.71256],[101.69077,12.713102],[101.690954,12.7131],[101.69095,12.712741]]],[[[101.69118,12.71355],[101.690954,12.7131],[101.690958,12.713462],[101.690774,12.713464],[101.690776,12.713644],[101.690408,12.713648],[101.69041,12.713829],[101.69118,12.71355]]]]}},{"type":"Feature","properties":{"plot":"14(1)-STC","new_water_rai":2.2},"geometry":{"type":"Polygon","coordinates":[[[101.673248,12.691779],[101.673246,12.691598],[101.672878,12.691602],[101.672881,12.691963],[101.673065,12.691961],[101.673067,12.692142],[101.673511,12.692137],[101.673616,12.691775],[101.673248,12.691779]]]}},{"type":"Feature","properties":{"plot":"14-VSD","new_water_rai":29.57},"geometry":{"type":"MultiPolygon","coordinates":[[[[101.707217,12.719439],[101.707401,12.719437],[101.707395,12.718895],[101.707211,12.718926],[101.707217,12.719439]]],[[[101.709053,12.719086],[101.707574,12.71842],[101.707393,12.718715],[101.707761,12.718711],[101.707765,12.719072],[101.707581,12.719074],[101.707585,12.719435],[101.707401,12.719437],[101.707403,12.719618],[101.707033,12.719441],[101.707036,12.719802],[101.706854,12.719985],[101.707589,12.719797],[101.707587,12.719616],[101.708011,12.719693],[101.707589,12.719844],[101.70759,12.719977],[101.707406,12.71991],[101.707208,12.719981],[101.707042,12.720344],[101.708554,12.719769],[101.708836,12.720687],[101.709255,12.720712],[101.709416,12.719417],[101.709057,12.71942],[101.709053,12.719086]],[[101.708505,12.719426],[101.707953,12.719431],[101.707951,12.719251],[101.708135,12.719249],[101.708133,12.719068],[101.708501,12.719065],[101.708505,12.719426]]],[[[101.706492,12.720538],[101.706615,12.719739],[101.704826,12.719644],[101.704828,12.719825],[101.705012,12.719823],[101.705014,12.720004],[101.704849,12.720005],[101.70515,12.720662],[101.705471,12.720585],[101.706492,12.720538]],[[101.706118,12.719992],[101.70612,12.720173],[101.705384,12.72018],[101.705196,12.719821],[101.706484,12.719808],[101.706486,12.719988],[101.706118,12.719992]]],[[[101.705169,12.720698],[101.705383,12.720921],[101.705458,12.720633],[101.705169,12.720698]]]]}},{"type":"Feature","properties":{"plot":"15-VSD","new_water_rai":36.87},"geometry":{"type":"MultiPolygon","coordinates":[[[[101.707823,12.726258],[101.708026,12.726296],[101.708029,12.72595],[101.707823,12.726258]]],[[[101.708562,12.726589],[101.708248,12.725626],[101.708039,12.725935],[101.708206,12.725933],[101.70821,12.726294],[101.708394,12.726293],[101.708396,12.726473],[101.707843,12.726479],[101.707797,12.726299],[101.707542,12.726681],[101.707588,12.726843],[101.708215,12.726836],[101.708221,12.727378],[101.707855,12.727563],[101.707861,12.728117],[101.708468,12.728108],[101.708735,12.728087],[101.708826,12.727977],[101.708867,12.727552],[101.7088,12.727327],[101.708789,12.727129],[101.708705,12.72703],[101.708872,12.72711],[101.709063,12.726954],[101.70918,12.726709],[101.709298,12.726563],[101.709351,12.726283],[101.708562,12.726589]],[[101.708412,12.727015],[101.708228,12.727017],[101.708224,12.726656],[101.708408,12.726654],[101.708412,12.727015]],[[101.708221,12.727378],[101.708405,12.727376],[101.708407,12.727557],[101.708223,12.727559],[101.708221,12.727378]],[[101.708038,12.727741],[101.708405,12.727737],[101.708407,12.727918],[101.708039,12.727922],[101.708038,12.727741]]],[[[101.707881,12.728032],[101.707861,12.728117],[101.707953,12.728116],[101.707881,12.728032]]],[[[101.70749,12.727006],[101.707768,12.728043],[101.707861,12.728032],[101.707668,12.727014],[101.70749,12.727006]]],[[[101.706367,12.72877],[101.70594,12.728774],[101.705942,12.728955],[101.70631,12.728951],[101.706367,12.72877]]],[[[101.705237,12.728836],[101.705274,12.728908],[101.705942,12.728955],[101.70594,12.728774],[101.705762,12.728776],[101.705794,12.728536],[101.705606,12.728718],[101.705237,12.728836]]],[[[101.707112,12.728762],[101.707131,12.728899],[101.707573,12.728894],[101.707711,12.728766],[101.707571,12.728714],[101.707112,12.728762]]],[[[101.707573,12.728894],[101.707761,12.729075],[101.707851,12.728945],[101.707573,12.728894]]]]}},{"type":"Feature","properties":{"plot":"16-STC","new_water_rai":23.72},"geometry":{"type":"MultiPolygon","coordinates":[[[[101.716048,12.728047],[101.716061,12.728228],[101.716245,12.728226],[101.716247,12.728407],[101.716431,12.728405],[101.716433,12.728586],[101.716617,12.728584],[101.716619,12.728765],[101.716803,12.728763],[101.716807,12.729124],[101.717174,12.72912],[101.71718,12.729662],[101.717364,12.72966],[101.71737,12.730202],[101.717554,12.7302],[101.717558,12.730562],[101.717374,12.730563],[101.71744,12.730681],[101.717789,12.730623],[101.718143,12.731035],[101.718437,12.730959],[101.718618,12.730696],[101.717885,12.72924],[101.71805,12.729148],[101.718066,12.728922],[101.718268,12.728902],[101.71835,12.728819],[101.718171,12.728487],[101.717207,12.728705],[101.716832,12.728004],[101.716048,12.728047]]],[[[101.717544,12.729297],[101.71754,12.728936],[101.717724,12.728934],[101.717728,12.729295],[101.717544,12.729297]]],[[[101.717734,12.729837],[101.71773,12.729476],[101.718098,12.729472],[101.718102,12.729834],[101.717734,12.729837]]]]}},{"type":"Feature","properties":{"plot":"16-VSD","new_water_rai":10.22},"geometry":{"type":"MultiPolygon","coordinates":[[[[101.699925,12.729223],[101.699557,12.729227],[101.699559,12.729407],[101.699191,12.729411],[101.699259,12.730063],[101.698999,12.731565],[101.699073,12.7316],[101.699506,12.731641],[101.699578,12.731568],[101.699509,12.731022],[101.699325,12.731024],[101.699319,12.730482],[101.699503,12.73048],[101.699497,12.729938],[101.699681,12.729936],[101.699677,12.729574],[101.699861,12.729573],[101.699925,12.729223]]],[[[101.700477,12.729217],[101.700481,12.729578],[101.700297,12.72958],[101.700301,12.729942],[101.700517,12.729851],[101.70158,12.729434],[101.701438,12.729011],[101.700477,12.729217]]]]}},{"type":"Feature","properties":{"plot":"17-STC","new_water_rai":235.99},"geometry":{"type":"MultiPolygon","coordinates":[[[[101.676562,12.721615],[101.677097,12.721776],[101.677099,12.721957],[101.677835,12.721949],[101.677831,12.721587],[101.678015,12.721585],[101.678258,12.721215],[101.678252,12.720682],[101.677972,12.720323],[101.676687,12.721502],[101.676562,12.721615]]],[[[101.672302,12.721188],[101.672092,12.721383],[101.671911,12.721506],[101.671915,12.721861],[101.671731,12.721863],[101.671733,12.722044],[101.671365,12.722048],[101.671003,12.72267],[101.671252,12.722614],[101.671254,12.722795],[101.671438,12.722793],[101.67144,12.722974],[101.671624,12.722972],[101.672183,12.72397],[101.672557,12.72369],[101.67255,12.723151],[101.672734,12.723149],[101.672733,12.722968],[101.672917,12.722966],[101.672913,12.722605],[101.673097,12.722603],[101.672908,12.722245],[101.672724,12.722247],[101.672722,12.722066],[101.672538,12.722068],[101.672536,12.721887],[101.672352,12.721889],[101.67235,12.721708],[101.672166,12.72171],[101.672164,12.721529],[101.672348,12.721527],[101.672302,12.721188]]],[[[101.672728,12.722608],[101.672913,12.722605],[101.672914,12.722786],[101.672731,12.722788],[101.672728,12.722608]]],[[[101.675755,12.722071],[101.675681,12.722072],[101.674894,12.722514],[101.674885,12.722469],[101.675573,12.72202],[101.675755,12.722071]]],[[[101.674571,12.721503],[101.675121,12.721678],[101.675122,12.721859],[101.67549,12.721855],[101.675493,12.722036],[101.675573,12.72202],[101.675755,12.722071],[101.675887,12.722298],[101.676605,12.722027],[101.676603,12.721846],[101.676415,12.721667],[101.675495,12.721674],[101.675493,12.721493],[101.674571,12.721503]]],[[[101.673287,12.721697],[101.673019,12.721611],[101.673933,12.721204],[101.674195,12.72169],[101.674019,12.721691],[101.674022,12.721872],[101.673838,12.721874],[101.673836,12.721693],[101.673287,12.721697]]],[[[101.676421,12.722209],[101.676053,12.722213],[101.676055,12.722393],[101.676423,12.722389],[101.676421,12.722209]]],[[[101.677345,12.722199],[101.676793,12.722205],[101.676797,12.722566],[101.677349,12.72256],[101.677345,12.722199]]],[[[101.676437,12.723654],[101.676621,12.723652],[101.676619,12.723471],[101.676803,12.723469],[101.676799,12.723108],[101.676615,12.72311],[101.676437,12.723654]]],[[[101.677167,12.723284],[101.677351,12.723283],[101.677347,12.722921],[101.677163,12.722923],[101.677167,12.723284]]],[[[101.677535,12.723279],[101.677719,12.723277],[101.677715,12.722916],[101.677531,12.722918],[101.677535,12.723279]]],[[[101.676257,12.723656],[101.676069,12.723477],[101.676071,12.723658],[101.676257,12.723656]]],[[[101.671824,12.724257],[101.672183,12.72397],[101.671922,12.723537],[101.671587,12.723541],[101.671824,12.724257]]],[[[101.676257,12.723656],[101.676073,12.723658],[101.676075,12.723839],[101.676259,12.723837],[101.676257,12.723656]]],[[[101.679978,12.723977],[101.680388,12.72416],[101.680966,12.724096],[101.680538,12.72448],[101.680302,12.724227],[101.679978,12.723977]]],[[[101.672208,12.724258],[101.672336,12.724474],[101.672378,12.724436],[101.672276,12.724257],[101.672208,12.724258]]],[[[101.679236,12.724437],[101.678872,12.724443],[101.67888,12.724742],[101.679068,12.724677],[101.679236,12.724969],[101.679236,12.724437]]],[[[101.676087,12.724923],[101.676633,12.724737],[101.676631,12.724556],[101.676447,12.724558],[101.676449,12.724739],[101.676081,12.724743],[101.676087,12.724923]]],[[[101.676817,12.724915],[101.676999,12.724732],[101.676815,12.724734],[101.676817,12.724915]]],[[[101.677018,12.725209],[101.677186,12.725027],[101.676828,12.725031],[101.676831,12.725392],[101.677015,12.72539],[101.677018,12.725209]]],[[[101.67272,12.725099],[101.672535,12.725101],[101.672653,12.72531],[101.67272,12.725099]]],[[[101.674056,12.72581],[101.67379,12.725402],[101.673609,12.725404],[101.673615,12.725946],[101.674056,12.72581]]],[[[101.674894,12.725756],[101.674896,12.725936],[101.675264,12.725933],[101.675262,12.725752],[101.674894,12.725756]]],[[[101.675262,12.725752],[101.675446,12.72575],[101.675444,12.725569],[101.675076,12.725573],[101.675078,12.725753],[101.675262,12.725752]]],[[[101.675996,12.725563],[101.676001,12.726105],[101.676185,12.726103],[101.676179,12.72556],[101.675996,12.725563]]],[[[101.676731,12.725555],[101.676916,12.725553],[101.676914,12.725372],[101.676729,12.725374],[101.676731,12.725555]]],[[[101.676548,12.725737],[101.676731,12.725735],[101.676729,12.725555],[101.676546,12.725556],[101.676548,12.725737]]],[[[101.676185,12.726103],[101.676184,12.725922],[101.676368,12.72592],[101.676367,12.725739],[101.676551,12.725737],[101.676548,12.725556],[101.676364,12.725558],[101.676363,12.725377],[101.676179,12.725379],[101.676185,12.726103]]],[[[101.676367,12.725739],[101.676368,12.72592],[101.676552,12.725918],[101.676551,12.725737],[101.676367,12.725739]]],[[[101.677191,12.726574],[101.67743,12.72649],[101.677394,12.726279],[101.677209,12.726281],[101.677208,12.7261],[101.677024,12.726102],[101.677018,12.72556],[101.676734,12.725915],[101.676736,12.726096],[101.676552,12.726099],[101.676554,12.726279],[101.67637,12.726281],[101.676372,12.726462],[101.676556,12.72646],[101.676558,12.726641],[101.676742,12.726639],[101.67674,12.726458],[101.676924,12.726456],[101.676926,12.726637],[101.677191,12.726574]]],[[[101.674351,12.726291],[101.674173,12.726293],[101.674351,12.7266],[101.674351,12.726291]]],[[[101.675657,12.726639],[101.67579,12.726344],[101.675447,12.726643],[101.675657,12.726639]]],[[[101.6744,12.726682],[101.674536,12.726916],[101.674536,12.726647],[101.6744,12.726682]]],[[[101.674721,12.727368],[101.674831,12.72731],[101.674716,12.726826],[101.674536,12.726828],[101.674721,12.727368]]],[[[101.675253,12.726637],[101.675255,12.726817],[101.675439,12.726815],[101.675437,12.726635],[101.675253,12.726637]]],[[[101.673797,12.727346],[101.673859,12.727366],[101.673803,12.727397],[101.673797,12.727346]]]]}},{"type":"Feature","properties":{"plot":"17-VSD","new_water_rai":20.44},"geometry":{"type":"MultiPolygon","coordinates":[[[[101.700956,12.729207],[101.700958,12.729388],[101.70151,12.729382],[101.701509,12.729202],[101.700956,12.729207]]],[[[101.701694,12.7292],[101.701696,12.729381],[101.702248,12.729376],[101.702246,12.729195],[101.701694,12.7292]]],[[[101.701381,12.729707],[101.701625,12.730214],[101.70168,12.73033],[101.702115,12.731235],[101.70281,12.729972],[101.702559,12.72956],[101.702251,12.729557],[101.702254,12.729918],[101.70207,12.72992],[101.702068,12.729739],[101.701884,12.729741],[101.701882,12.72956],[101.701698,12.729562],[101.701696,12.729381],[101.701512,12.729383],[101.70151,12.729563],[101.701326,12.729565],[101.701381,12.729707]]],[[[101.700774,12.730474],[101.700406,12.730478],[101.700412,12.73102],[101.700596,12.731018],[101.70059,12.730476],[101.700774,12.730474]]],[[[101.699855,12.730664],[101.699671,12.730666],[101.699675,12.731027],[101.699859,12.731025],[101.699855,12.730664]]],[[[101.699675,12.731027],[101.699677,12.731208],[101.699861,12.731206],[101.699859,12.731025],[101.699675,12.731027]]],[[[101.701713,12.731269],[101.701602,12.731229],[101.701658,12.731372],[101.701713,12.731269]]],[[[101.700599,12.731379],[101.700585,12.731892],[101.701814,12.731542],[101.70198,12.731525],[101.701863,12.731399],[101.70151,12.731494],[101.701527,12.731377],[101.701713,12.731269],[101.701544,12.73125],[101.701599,12.731204],[101.70168,12.73122],[101.701546,12.731069],[101.701362,12.731071],[101.701358,12.73071],[101.701174,12.730712],[101.701172,12.730531],[101.700988,12.730533],[101.70099,12.730714],[101.700806,12.730716],[101.700812,12.731258],[101.700628,12.73126],[101.70063,12.731441],[101.700599,12.731379]]],[[[101.70198,12.731525],[101.701907,12.731437],[101.701816,12.731471],[101.701714,12.731628],[101.70198,12.731525]]]]}},{"type":"Feature","properties":{"plot":"18(1)-STC","new_water_rai":16.01},"geometry":{"type":"MultiPolygon","coordinates":[[[[101.665355,12.726432],[101.665402,12.726279],[101.665218,12.726281],[101.665219,12.726442],[101.665355,12.726432]]],[[[101.666014,12.726295],[101.66584,12.726297],[101.665978,12.726574],[101.666014,12.726295]]],[[[101.663914,12.726586],[101.663776,12.726709],[101.664011,12.727222],[101.664158,12.727146],[101.664114,12.726584],[101.663914,12.726586]]],[[[101.665905,12.72704],[101.665723,12.727042],[101.665726,12.727403],[101.66591,12.727401],[101.665905,12.72704]]],[[[101.666094,12.727401],[101.666091,12.727117],[101.666018,12.727265],[101.666094,12.727401]]],[[[101.664528,12.727598],[101.664677,12.727803],[101.664896,12.727797],[101.664893,12.727615],[101.664528,12.727598]]],[[[101.665724,12.727222],[101.66554,12.727224],[101.665544,12.727585],[101.665728,12.727583],[101.665724,12.727222]]],[[[101.666461,12.727033],[101.666095,12.727117],[101.666099,12.727579],[101.666283,12.727577],[101.666281,12.727397],[101.666465,12.727395],[101.666461,12.727033]]],[[[101.666649,12.727574],[101.666668,12.727574],[101.666658,12.727554],[101.666649,12.727574]]],[[[101.666283,12.727577],[101.666285,12.727758],[101.666469,12.727756],[101.666467,12.727575],[101.666283,12.727577]]],[[[101.666649,12.727574],[101.666651,12.727755],[101.666835,12.727753],[101.666834,12.727572],[101.666649,12.727574]]],[[[101.666837,12.727933],[101.666655,12.728115],[101.666487,12.728172],[101.666992,12.727914],[101.666837,12.727933]]]]}},{"type":"Feature","properties":{"plot":"18-STC","new_water_rai":25.45},"geometry":{"type":"MultiPolygon","coordinates":[[[[101.686659,12.727099],[101.686651,12.727082],[101.686651,12.727099],[101.686659,12.727099]]],[[[101.685937,12.726919],[101.685945,12.727632],[101.686024,12.727325],[101.686531,12.727328],[101.6865,12.727916],[101.686067,12.727902],[101.686124,12.72801],[101.687117,12.727955],[101.687368,12.729217],[101.686946,12.729176],[101.686907,12.729023],[101.687073,12.729],[101.686991,12.728317],[101.686237,12.728262],[101.68635,12.728505],[101.686883,12.728499],[101.686887,12.728861],[101.686519,12.728864],[101.686434,12.728684],[101.686849,12.729575],[101.686893,12.729403],[101.687261,12.729399],[101.687267,12.729941],[101.687106,12.729942],[101.687005,12.729573],[101.687158,12.730132],[101.687637,12.730122],[101.687631,12.729576],[101.687447,12.729578],[101.687368,12.729217],[101.687887,12.729411],[101.688451,12.730597],[101.687879,12.730404],[101.687723,12.731318],[101.689264,12.731727],[101.689838,12.731541],[101.689656,12.73082],[101.688933,12.730827],[101.687879,12.730404],[101.688451,12.730597],[101.687887,12.729411],[101.687502,12.729514],[101.687368,12.729217],[101.687488,12.727391],[101.687487,12.727274],[101.685937,12.726919]]]}},{"type":"Feature","properties":{"plot":"19-STC","new_water_rai":9.11},"geometry":{"type":"MultiPolygon","coordinates":[[[[101.661316,12.725686],[101.660377,12.726528],[101.661418,12.725685],[101.661316,12.725686]]],[[[101.660182,12.727143],[101.660362,12.72678],[101.66073,12.726776],[101.660734,12.727125],[101.661096,12.726592],[101.66143,12.726408],[101.661095,12.726411],[101.661091,12.72605],[101.661275,12.726048],[101.661273,12.725867],[101.661641,12.725863],[101.661645,12.726204],[101.661863,12.725997],[101.661638,12.725529],[101.660498,12.726561],[101.660289,12.726504],[101.659974,12.726964],[101.660182,12.727143]],[[101.660728,12.726595],[101.660912,12.726593],[101.660914,12.726774],[101.66073,12.726776],[101.660728,12.726595]]],[[[101.659872,12.726925],[101.659673,12.726868],[101.659765,12.726885],[101.660184,12.726492],[101.65983,12.72608],[101.660295,12.726473],[101.659955,12.726061],[101.65964,12.726064],[101.659436,12.726247],[101.659804,12.726243],[101.65981,12.726785],[101.659473,12.726789],[101.659637,12.726922],[101.659872,12.726925]]],[[[101.660332,12.727457],[101.660552,12.72732],[101.660184,12.727323],[101.660332,12.727457]]]]}},{"type":"Feature","properties":{"plot":"20-STC","new_water_rai":22.95},"geometry":{"type":"MultiPolygon","coordinates":[[[[101.665465,12.721957],[101.664885,12.722795],[101.664762,12.722489],[101.664859,12.722958],[101.665465,12.721957]]],[[[101.662796,12.725409],[101.663409,12.725069],[101.664229,12.724274],[101.664859,12.722958],[101.663456,12.723422],[101.663641,12.723522],[101.66329,12.723498],[101.663482,12.724155],[101.66319,12.723499],[101.662905,12.723531],[101.662724,12.723865],[101.66254,12.723867],[101.662574,12.724427],[101.661837,12.724777],[101.662144,12.725858],[101.662725,12.725672],[101.662796,12.725409]],[[101.663648,12.724217],[101.663832,12.724215],[101.663836,12.724577],[101.663652,12.724578],[101.663648,12.724217]],[[101.662555,12.725312],[101.662557,12.725493],[101.662373,12.725495],[101.662182,12.724774],[101.6631,12.724584],[101.663288,12.724943],[101.66292,12.724947],[101.662922,12.725128],[101.662555,12.725312]],[[101.664559,12.723304],[101.664561,12.723485],[101.664377,12.723487],[101.664375,12.723306],[101.664559,12.723304]],[[101.664379,12.723668],[101.664195,12.72367],[101.664193,12.723489],[101.664377,12.723487],[101.664379,12.723668]]]]}},{"type":"Feature","properties":{"plot":"21-STC","new_water_rai":24.07},"geometry":{"type":"MultiPolygon","coordinates":[[[[101.791546,12.756864],[101.791087,12.756923],[101.791051,12.756869],[101.791097,12.75705],[101.791548,12.757045],[101.791546,12.756864]]],[[[101.790629,12.757202],[101.790446,12.757261],[101.790448,12.757418],[101.790632,12.757416],[101.790629,12.757202]]],[[[101.790448,12.757418],[101.790264,12.75742],[101.790266,12.7576],[101.79045,12.757598],[101.790448,12.757418]]],[[[101.790082,12.757602],[101.789898,12.757604],[101.790016,12.758145],[101.790088,12.758144],[101.790082,12.757602]]],[[[101.789671,12.757787],[101.789163,12.757793],[101.789165,12.757973],[101.789718,12.757968],[101.789671,12.757787]]],[[[101.789165,12.757973],[101.788797,12.757977],[101.788799,12.758158],[101.789167,12.758154],[101.789165,12.757973]]],[[[101.789169,12.758335],[101.789537,12.758331],[101.789535,12.75815],[101.789167,12.758154],[101.789169,12.758335]]],[[[101.790648,12.758861],[101.79065,12.759042],[101.790834,12.75904],[101.790832,12.758859],[101.790648,12.758861]]],[[[101.791206,12.759397],[101.79139,12.759395],[101.791388,12.759214],[101.791204,12.759216],[101.791206,12.759397]]],[[[101.788641,12.760508],[101.788643,12.760689],[101.788827,12.760687],[101.788825,12.760506],[101.788641,12.760508]]],[[[101.78755,12.76052],[101.787171,12.760699],[101.787173,12.760885],[101.787357,12.760883],[101.787355,12.760702],[101.787907,12.760697],[101.78755,12.76052]]],[[[101.786989,12.760887],[101.786991,12.761068],[101.787175,12.761066],[101.787173,12.760885],[101.786989,12.760887]]],[[[101.786807,12.76107],[101.786809,12.76125],[101.786993,12.761248],[101.786991,12.761068],[101.786807,12.76107]]],[[[101.787913,12.761238],[101.787915,12.761419],[101.788283,12.761415],[101.788281,12.761235],[101.787913,12.761238]]],[[[101.788651,12.761411],[101.788653,12.761592],[101.788837,12.76159],[101.788835,12.761409],[101.788651,12.761411]]],[[[101.789023,12.761769],[101.789025,12.761949],[101.789209,12.761947],[101.789207,12.761767],[101.789023,12.761769]]],[[[101.789211,12.762128],[101.789395,12.762126],[101.789393,12.761946],[101.789209,12.761947],[101.789211,12.762128]]],[[[101.789397,12.762307],[101.789581,12.762305],[101.789579,12.762124],[101.789395,12.762126],[101.789397,12.762307]]],[[[101.79278,12.754503],[101.793056,12.754436],[101.793142,12.754697],[101.792996,12.754862],[101.79318,12.75486],[101.793138,12.754372],[101.79278,12.754503]]],[[[101.793368,12.755219],[101.793367,12.755038],[101.793182,12.75504],[101.793184,12.755221],[101.793368,12.755219]]],[[[101.791719,12.755885],[101.791712,12.755236],[101.791528,12.755238],[101.791536,12.755961],[101.791719,12.755885]]],[[[101.793556,12.755578],[101.79356,12.755931],[101.793744,12.755932],[101.793741,12.755576],[101.793556,12.755578]]],[[[101.792272,12.755953],[101.792456,12.755951],[101.792454,12.755771],[101.79227,12.755773],[101.792272,12.755953]]],[[[101.79264,12.755949],[101.792642,12.75612],[101.79301,12.756126],[101.793007,12.755834],[101.792822,12.755767],[101.792824,12.755947],[101.79264,12.755949]]],[[[101.791603,12.756683],[101.791728,12.756682],[101.791724,12.75632],[101.79154,12.756322],[101.791603,12.756683]]],[[[101.79228,12.756676],[101.792276,12.756314],[101.792092,12.756316],[101.792096,12.756678],[101.79228,12.756676]]],[[[101.794303,12.756474],[101.793938,12.756839],[101.794306,12.756796],[101.794303,12.756474]]],[[[101.793016,12.756668],[101.792836,12.757031],[101.793092,12.756875],[101.793389,12.757125],[101.793755,12.756922],[101.793906,12.756478],[101.793686,12.75648],[101.793671,12.756833],[101.793386,12.756845],[101.793198,12.756485],[101.793202,12.756847],[101.793018,12.756849],[101.793016,12.756668]]],[[[101.793208,12.757389],[101.792658,12.757575],[101.793146,12.757552],[101.793208,12.757389]]],[[[101.791475,12.757588],[101.791002,12.757593],[101.791004,12.757773],[101.791277,12.757951],[101.791926,12.757944],[101.791924,12.757764],[101.791556,12.757767],[101.791475,12.757588]]],[[[101.791748,12.758488],[101.79175,12.758669],[101.791934,12.758667],[101.791932,12.758486],[101.791748,12.758488]]],[[[101.792906,12.758476],[101.792856,12.758838],[101.79304,12.758836],[101.792906,12.758476]]],[[[101.79268,12.759529],[101.793314,12.759501],[101.793159,12.759557],[101.793236,12.759918],[101.793484,12.759915],[101.793226,12.759014],[101.793042,12.759016],[101.793046,12.759378],[101.792679,12.759473],[101.793314,12.759447],[101.79268,12.759529]]],[[[101.793238,12.760098],[101.793236,12.759918],[101.793052,12.75992],[101.793054,12.7601],[101.793238,12.760098]]],[[[101.791582,12.760116],[101.791584,12.760296],[101.791768,12.760294],[101.791766,12.760114],[101.791582,12.760116]]],[[[101.792874,12.760463],[101.79269,12.760465],[101.792692,12.760646],[101.792876,12.760644],[101.792874,12.760463]]]]}},{"type":"Feature","properties":{"plot":"22(1)-STC","new_water_rai":1.61},"geometry":{"type":"MultiPolygon","coordinates":[[[[101.796513,12.754093],[101.796483,12.753894],[101.796299,12.753923],[101.796301,12.754104],[101.796513,12.754093]]],[[[101.795881,12.75465],[101.795933,12.754108],[101.795749,12.75411],[101.795749,12.754124],[101.795881,12.75465]]],[[[101.796127,12.755009],[101.795971,12.755011],[101.796061,12.755371],[101.796131,12.75537],[101.796127,12.755009]]]]}},{"type":"Feature","properties":{"plot":"23-STC","new_water_rai":16.77},"geometry":{"type":"MultiPolygon","coordinates":[[[[101.722808,12.714582],[101.723176,12.714578],[101.72317,12.714036],[101.722986,12.714038],[101.722988,12.714219],[101.72262,12.714222],[101.722808,12.714582]]],[[[101.725388,12.714917],[101.725204,12.714918],[101.725206,12.715099],[101.72539,12.715097],[101.725388,12.714917]]],[[[101.723738,12.715476],[101.724106,12.715472],[101.7241,12.71493],[101.723732,12.714934],[101.723738,12.715476]]],[[[101.724836,12.714922],[101.724468,12.714926],[101.724474,12.715468],[101.724842,12.715464],[101.724836,12.714922]]],[[[101.72576,12.715274],[101.725576,12.715276],[101.725578,12.715457],[101.725762,12.715455],[101.72576,12.715274]]],[[[101.721898,12.715494],[101.722087,12.716034],[101.723192,12.716023],[101.722986,12.715763],[101.723188,12.715681],[101.72318,12.714939],[101.721892,12.714952],[101.721894,12.715133],[101.72171,12.715135],[101.721752,12.715496],[101.721898,12.715494]]],[[[101.725398,12.715804],[101.725392,12.715278],[101.725208,12.71528],[101.725214,12.715822],[101.725398,12.715804]]],[[[101.723741,12.715799],[101.724108,12.715652],[101.72374,12.715656],[101.723741,12.715799]]],[[[101.724294,12.715831],[101.724296,12.716012],[101.72448,12.71601],[101.724478,12.715829],[101.724294,12.715831]]],[[[101.724574,12.716009],[101.724481,12.716166],[101.724849,12.716174],[101.724849,12.716086],[101.724574,12.716009]]]]}}]}