{"type":"FeatureCollection","features":[{"type":"Feature","properties":{"plot":"13-STC","date":"2026-04-30","derived_water_rai":34.75,"valid_pct":100.0,"analysis_status":"VERIFIED","threshold":"MNDWI > 0","report_water_rai":34.813877,"report_water_pct":13.357586},"geometry":{"type":"MultiPolygon","coordinates":[[[[101.69494735111212,12.707820157541496],[101.694951161963,12.708181471754816],[101.6951351755744,12.708179600993027],[101.69513708117358,12.708360258068128],[101.69532109488539,12.708358387151513],[101.69532300064361,12.708539044196424],[101.69587504199214,12.708533430599974],[101.69586932363796,12.707991459704168],[101.69568531027363,12.707993330947975],[101.69568340434398,12.707812673949773],[101.69494735111212,12.707820157541496]]],[[[101.69402537917945,12.707648851917412],[101.69402347447593,12.707468194666676],[101.69383946120742,12.707470064554476],[101.69384136578122,12.707650721832655],[101.69402537917945,12.707648851917412]]],[[[101.69166746203595,12.71092498734523],[101.69185147812115,12.710923118464812],[101.69184701658114,12.710499716665545],[101.69168266951507,12.71038280223316],[101.69147773576479,12.710384883333534],[101.6914815425066,12.710746198512744],[101.69166555849135,12.710744329787147],[101.69166746203595,12.71092498734523]]],[[[101.69185718932002,12.71146509104038],[101.69204120576518,12.7114632219503],[101.69203930187317,12.71128256445527],[101.6922233181593,12.71128069526521],[101.69222141416682,12.711100037794871],[101.69203739801047,12.711101906957506],[101.69203549417705,12.710921249456998],[101.69185147812115,12.710923118464812],[101.69185718932002,12.71146509104038]]],[[[101.69217572713913,12.70676425768569],[101.69217382387929,12.706583600146939],[101.6919898109662,12.70658546862399],[101.69199171409633,12.706766126190166],[101.69217572713913,12.70676425768569]]],[[[101.69143016138001,12.705868442669932],[101.69143206400383,12.706049100329306],[101.69124805136268,12.706050968214695],[101.69125185643883,12.706412283580066],[101.6914358693394,12.70641041563985],[101.69143396665697,12.706229757985945],[101.69161797939856,12.706227889945794],[101.69162178505212,12.70658920519603],[101.69180579802381,12.706587336973687],[101.69180008919831,12.706045364176488],[101.69161607661572,12.706047232316573],[101.69161417386219,12.705866574684613],[101.69143016138001,12.705868442669932]]],[[[101.69148725283902,12.71128817126103],[101.69148534936558,12.711107513681005],[101.69130133309203,12.711109382334039],[101.69130323643572,12.711290039941478],[101.69148725283902,12.71128817126103]]],[[[101.68961285280163,12.708055010539795],[101.6897968671332,12.70805314349917],[101.68979306360528,12.70769182774452],[101.68997707764814,12.707689960631326],[101.68997517579837,12.707509302777304],[101.69015918968223,12.707507435564143],[101.69015538581111,12.707146119902692],[101.69033939940626,12.707144252616976],[101.69033559539285,12.706782936999387],[101.69051960869929,12.706781069641124],[101.69051580454361,12.706419754067408],[101.69069981756135,12.7064178866366],[101.69069791539772,12.706237228873047],[101.69088192825649,12.7062353613423],[101.69087812375771,12.705874045861805],[101.69069411115835,12.705875913337733],[101.69069601326339,12.706056571106757],[101.69051200050507,12.70605843848275],[101.6905139025097,12.706239096276446],[101.69032988959238,12.70624096355249],[101.69033369343008,12.706602279186491],[101.69014968022407,12.706604146389992],[101.69015348391947,12.70696546206786],[101.68996947042477,12.706967329198811],[101.68997137218669,12.707147987061045],[101.68978735853298,12.707149854092037],[101.68979116188524,12.707511169863098],[101.68960714794282,12.707513036821526],[101.68960904953315,12.707693694730349],[101.68942503543175,12.70769556158881],[101.68942693692162,12.7078762195223],[101.68924292266122,12.707878086280788],[101.68924672546936,12.708239402194344],[101.68887869634185,12.708243135438783],[101.68888249874817,12.708604451450965],[101.68906651358601,12.708602584837651],[101.6890684149628,12.70878324281225],[101.68943644481014,12.708779509148698],[101.68943264156691,12.708418193306343],[101.68961665618721,12.708416326338295],[101.68961285280163,12.708055010539795]]],[[[101.69004366083699,12.714012983798492],[101.69022767939194,12.714011115598819],[101.69022577638754,12.713830457867966],[101.6904097947834,12.713828589568266],[101.69040789167849,12.713647931862083],[101.6907759281228,12.713644194935204],[101.69077402478761,12.713463537281106],[101.69095804283606,12.713461668653938],[101.690954235994,12.713100353392344],[101.69077021820512,12.713102221964691],[101.69076450855101,12.712560248969538],[101.69058049112218,12.712562117332233],[101.6905785880925,12.712381459634301],[101.69002653601956,12.712387063875667],[101.69002843865991,12.712567721655816],[101.68984442111393,12.712569589508846],[101.6898463236538,12.71275024731366],[101.68966230594874,12.71275211506667],[101.68966420838812,12.712932772896147],[101.68948019052404,12.712934640549136],[101.6894820928629,12.713115298403276],[101.68929807483974,12.713117165956238],[101.68930187934578,12.713478481711102],[101.68948589762849,12.713476614103344],[101.68949160499645,12.71401858763292],[101.68967562363925,12.714016719815541],[101.68968133166007,12.71455869323829],[101.68986535066296,12.714556825211282],[101.68986344783028,12.714376167433837],[101.69004746667409,12.71437429930679],[101.69004366083699,12.714012983798492]]],[[[101.6901820153686,12.709675329303055],[101.69018011306703,12.70949467150653],[101.68981208241603,12.709498406408322],[101.68981398445813,12.709679064259653],[101.68999799992802,12.70967719684505],[101.68999990212916,12.709857854666245],[101.69018391769949,12.70985598709685],[101.69018582005964,12.710036644887905],[101.69055385137196,12.710032909312135],[101.69055194875232,12.709852251575892],[101.69036793324054,12.709854119400068],[101.69036603077993,12.709673461633678],[101.6901820153686,12.709675329303055]]],[[[101.69000941357402,12.71076114373118],[101.69000751122648,12.710580485923664],[101.68982349510787,12.710582353475273],[101.68982539732566,12.710763011310194],[101.69000941357402,12.71076114373118]]],[[[101.68910454668345,12.712215743809766],[101.68910074284682,12.711854427961802],[101.68891672567351,12.711856295068175],[101.68892052925062,12.71221761097092],[101.68910454668345,12.712215743809766]]],[[[101.68872700371412,12.711316188090324],[101.6889110205274,12.711314321193532],[101.688907217243,12.710953005263425],[101.68872320068922,12.710954872105434],[101.68872700371412,12.711316188090324]]]]}},{"type":"Feature","properties":{"plot":"13-STC","date":"2026-09-29","derived_water_rai":231.0,"valid_pct":100.0,"analysis_status":"VERIFIED","threshold":"MNDWI > 0","report_water_rai":229.728503,"report_water_pct":88.143538},"geometry":{"type":"MultiPolygon","coordinates":[[[[101.69000429933367,12.714736091694252],[101.69005018680004,12.714632533619248],[101.6900455637409,12.71419364155401],[101.69022958242564,12.714191773326931],[101.69022767939194,12.714011115598819],[101.69041160276021,12.714000214386603],[101.6904097947834,12.713828589568266],[101.69070948182258,12.713825546636],[101.69077741908917,12.713785710095676],[101.6907759281228,12.713644194935204],[101.69102303824111,12.713641685569723],[101.69114323473518,12.71357120541922],[101.69111198355013,12.713225225332156],[101.69106991222158,12.713099178715524],[101.690954235994,12.713100353392344],[101.69095045283417,12.712741274833427],[101.69088960712975,12.712558978747808],[101.69076450855101,12.712560248969538],[101.69076260539157,12.712379591299015],[101.6905785880925,12.712381459634301],[101.69057478212102,12.712020144230223],[101.69039076505219,12.71202201238328],[101.69038505670392,12.71148003917442],[101.6902010399951,12.711481907117848],[101.6901915273158,12.710578618244657],[101.68908743034065,12.710589822407748],[101.68908933203943,12.710770480352254],[101.68853728276741,12.71077608079611],[101.68854256337599,12.711277817392194],[101.68860676400836,12.711498085179239],[101.68872890527045,12.711496846078663],[101.68873386109667,12.711967662904808],[101.68881364009873,12.712218695479487],[101.68892052925062,12.71221761097092],[101.68892433294481,12.712578926862719],[101.68910835063718,12.712577059646778],[101.68911491070904,12.713200137250642],[101.68914537908874,12.713299392734609],[101.68929997707812,12.713297823835036],[101.68930548563989,12.713820962911184],[101.68942183105523,12.714199972973223],[101.68949350751099,12.71419924547064],[101.68953241255666,12.714560204863153],[101.68968133166007,12.71455869323829],[101.68968323439223,12.7147393510404],[101.69000429933367,12.714736091694252]]],[[[101.69113947915163,12.713214783025947],[101.69111198355013,12.713225225332156],[101.69113949318756,12.713216115122046],[101.69113947915163,12.713214783025947]]],[[[101.69150597191299,12.713094750133216],[101.6919438124445,12.712909625913753],[101.69205312579727,12.712594232889872],[101.69205072566483,12.712366509384394],[101.69219015398193,12.712365093000486],[101.69223283856122,12.712183982575867],[101.6923581116117,12.71218270992255],[101.69241495119807,12.712001455692043],[101.69252606900623,12.712000326783942],[101.69259815064925,12.711922054001688],[101.69259706357539,12.71181892873293],[101.69269402616553,12.711817943584675],[101.6927801041185,12.71172447217154],[101.69277634118795,12.711367516290887],[101.69270900034743,12.711275761217266],[101.69259135064358,12.711276956502878],[101.69258962353008,12.711113104428485],[101.69245892140628,12.710935015999418],[101.69221951020364,12.710919380321789],[101.6922178677577,12.710763534664016],[101.69203359037296,12.710740591953764],[101.69203244207995,12.710631625749535],[101.69184767080175,12.710561803400754],[101.69184701658114,12.710499716665545],[101.69168266951507,12.71038280223316],[101.69147773576479,12.710384883333534],[101.69147616612027,12.710235897989044],[101.69129181681303,12.710206094255772],[101.6912907411582,12.710103988396549],[101.69110589812077,12.71002730499305],[101.69099406159108,12.709892932696],[101.69073596423479,12.709850383624334],[101.69073487197355,12.709746676951],[101.69060089771936,12.709671077659854],[101.69036603077993,12.709673461633678],[101.69036460154555,12.70953773962637],[101.69018011306703,12.70949467150653],[101.69017946653196,12.709433270723162],[101.68997183677777,12.709316108095503],[101.6898101804032,12.709317748554252],[101.68980919690551,12.709224332434967],[101.68953149503636,12.709067628297282],[101.68962272996139,12.708993302481337],[101.6895696261963,12.708958835090552],[101.68944084441377,12.709197466549156],[101.68944402950403,12.709500037249596],[101.6896280670466,12.709500273668139],[101.68962955600702,12.709641706514528],[101.68981398445813,12.709679064259653],[101.68981508270537,12.709783375606815],[101.68999990212916,12.709857854666245],[101.6900006095991,12.709925044526445],[101.69018582005964,12.710036644887905],[101.69021879529465,12.710216987297285],[101.69037173824962,12.710215434924633],[101.6903768887878,12.71070450127795],[101.69045239017653,12.710937324495784],[101.6905633649095,12.710936197952313],[101.69056710257098,12.711291061327953],[101.69062758745304,12.711477577063134],[101.69075309003371,12.711476302905343],[101.6908027856854,12.7120178293463],[101.69094281617079,12.712016407541872],[101.69094753351754,12.712464180422998],[101.69103638481552,12.712738165281772],[101.69113444676913,12.712737169474861],[101.69115318501787,12.713098333060032],[101.69150597191299,12.713094750133216]]],[[[101.68943644481014,12.708779509148698],[101.68953300922593,12.708778529417925],[101.68961880078851,12.708620055263145],[101.68961475447978,12.708235668440413],[101.68979876894107,12.708233801372389],[101.6897968671332,12.70805314349917],[101.68992641494106,12.708051829008555],[101.68997897952718,12.707870618482621],[101.69002476606792,12.707870153879497],[101.69016037121149,12.707619662396157],[101.69015728773203,12.707326777734783],[101.690319818724,12.707325128428229],[101.69033939940626,12.707144252616976],[101.69041816936786,12.707143453256453],[101.690521416126,12.706952733638223],[101.6905177066068,12.706600411855632],[101.69070171975426,12.706598544397421],[101.69069981756135,12.7064178866366],[101.69081157073589,12.706416752462575],[101.69088245941334,12.706285804736433],[101.69088002599246,12.706054703603419],[101.69100827069549,12.706053402001613],[101.6910629804469,12.705952340231615],[101.69106023399262,12.705691520541588],[101.6905661538082,12.705696534762865],[101.69050912918198,12.705785706796965],[101.69051200050507,12.70605843848275],[101.69033356182787,12.706060249170617],[101.69032988959238,12.70624096355249],[101.69021726561357,12.706242106344385],[101.69014702527085,12.706351943934498],[101.69014968022407,12.706604146389992],[101.68998467273668,12.706605820631689],[101.68996756869213,12.706786671333845],[101.68985829782052,12.706787779997425],[101.68978456621987,12.70688457923404],[101.68978735853298,12.707149854092037],[101.68960334485,12.707151720995672],[101.68960714794282,12.707513036821526],[101.68942313397115,12.70751490365259],[101.68942503543175,12.70769556158881],[101.6890318262538,12.707699550343706],[101.68887409659618,12.707806038974018],[101.6888748940526,12.707881819415658],[101.68869136083975,12.707929409862677],[101.68869278070467,12.708064343832358],[101.68850876619746,12.70806621010876],[101.68851066709728,12.708246868173733],[101.68832665243109,12.708248734350146],[101.68832855323043,12.708429392439767],[101.68814453840525,12.708431258516194],[101.68814643910413,12.708611916630463],[101.68796242411996,12.708613782606898],[101.68796347985021,12.708714133588051],[101.68835780183473,12.708971127895],[101.68851827098915,12.708969500406265],[101.68851939634942,12.709076444698278],[101.68870418732085,12.709148292016836],[101.68890375666531,12.709326944948089],[101.68907411926881,12.709325216719623],[101.68907531429184,12.70943875431608],[101.68914943679322,12.709487062152357],[101.6892577518055,12.709286983661078],[101.68925623300198,12.709142691930364],[101.68933630564375,12.709141879558468],[101.68943827650045,12.708953519480124],[101.68943644481014,12.708779509148698]]],[[[101.69016299367046,12.707868751214654],[101.69016289633166,12.707859505784914],[101.69015787890075,12.707868803118073],[101.69016299367046,12.707868751214654]]],[[[101.690529119601,12.707684358527542],[101.69034510564599,12.707686226022837],[101.69035081214929,12.70822819940408],[101.69016679777584,12.708230066854222],[101.69016869987244,12.708410724669903],[101.68998468533998,12.708412592020075],[101.68998848936158,12.708773907698033],[101.68980447454038,12.708775774975635],[101.68980637646538,12.708956432837907],[101.6899903914163,12.708954565532906],[101.6899920400534,12.709111151418465],[101.69003776129972,12.709134761951155],[101.6903603235738,12.7091314883181],[101.69038089544334,12.709311956604292],[101.69054624106911,12.709310278350744],[101.69054433856662,12.709129620603553],[101.69072835353016,12.709127752761626],[101.6907321588239,12.70948906819845],[101.69091617401762,12.709487200174319],[101.69091724547134,12.70958892653186],[101.6910671649598,12.709666344283328],[101.69147012263277,12.709662252942275],[101.691468219423,12.709481595337623],[101.69183624954678,12.709477858142897],[101.69183815301602,12.709658515692713],[101.69165413783904,12.709660384381188],[101.69165741195049,12.70997114378317],[101.6918419600424,12.71001983078414],[101.69184245386816,12.710066697701615],[101.69209657230752,12.710197921733483],[101.69221189464406,12.710196750402105],[101.69221253806097,12.710257805065208],[101.69239758033609,12.710353358510355],[101.69239400617597,12.710014223789857],[101.69257802149522,12.710012354536984],[101.69258262273038,12.710448911797736],[101.69278284592131,12.71055230398777],[101.69295176514055,12.710550587772007],[101.6929527078764,12.710640017899175],[101.69323494151425,12.710728387144997],[101.69331995420508,12.710561820494272],[101.69331789169858,12.710366190893218],[101.69342033127907,12.710365149929164],[101.69350026460471,12.710208534968798],[101.69349809765176,12.71000300636177],[101.69360572059655,12.71000191268055],[101.6936805745812,12.709855249412323],[101.6936783031739,12.709639821801737],[101.69379110946674,12.70963867539917],[101.69386088413455,12.70950196382485],[101.69385660342735,12.709095979959578],[101.69404061786337,12.7090941098248],[101.69403871292523,12.708913452595954],[101.69416188586528,12.708912200738151],[101.69422150197201,12.708795392556976],[101.69421891715447,12.70855026795023],[101.69434727339369,12.708548963358538],[101.69440181025612,12.708442106876591],[101.69439939198304,12.70821278501996],[101.69421510722405,12.708188953528268],[101.69421439631188,12.708121533000899],[101.69398944172691,12.708010570335013],[101.69366116132984,12.708013906223563],[101.6936630658619,12.708194563520975],[101.69347905201586,12.7081964332638],[101.69347441474923,12.707756523360782],[101.6932716601144,12.707656510282673],[101.69310531189512,12.707658200219976],[101.69310442464113,12.707574017602438],[101.69291942975538,12.707482764488706],[101.6929212983503,12.707660069498392],[101.69273728477617,12.707661938649444],[101.69273918860101,12.707842596089503],[101.69255517486785,12.707844465140617],[101.69254946387044,12.707302492729957],[101.69236545049712,12.707304361571426],[101.69236444577135,12.707209004209298],[101.69217945133441,12.707117750470095],[101.69181150711302,12.70712930974627],[101.69180960405397,12.706948652158145],[101.69162559082288,12.706950520435324],[101.69162446869684,12.706843988314363],[101.69147721347319,12.706771349852819],[101.69125566163217,12.7067735989345],[101.69125448083282,12.70666147942878],[101.69111832541185,12.706594316001468],[101.69088573287242,12.70659667681185],[101.6908876352243,12.706777334542526],[101.69074612727559,12.706778770766116],[101.69070552422792,12.706959859910853],[101.69064808618043,12.706960442851114],[101.69052391984437,12.707190525188349],[101.690529119601,12.707684358527542]],[[101.69181341020135,12.707309967331655],[101.69162939671081,12.707311835663674],[101.69162749375221,12.707131178050869],[101.69181150711302,12.70712930974627],[101.69181341020135,12.707309967331655]],[[101.69311483260958,12.708561487118573],[101.69329884677369,12.708559617575617],[101.69330265552414,12.70892093226103],[101.69311864110057,12.708922801858856],[101.69311483260958,12.708561487118573]],[[101.69329694244244,12.708378960228806],[101.69348095644752,12.70837709058591],[101.69348286090849,12.708557747905289],[101.69329884677369,12.708559617575617],[101.69329694244244,12.708378960228806]],[[101.6925742134309,12.709651039664953],[101.69275822846136,12.70964917033955],[101.6927601326086,12.709829827749505],[101.6925761174484,12.709831697102336],[101.6925742134309,12.709651039664953]],[[101.69275442025479,12.709287855511434],[101.69293843499646,12.709285986113501],[101.6929422434625,12.709647300886758],[101.69275822846136,12.70964917033955],[101.69275442025479,12.709287855511434]],[[101.69293653080742,12.70910532872277],[101.69312054539003,12.709103459224893],[101.69312244970882,12.70928411658819],[101.69293843499646,12.709285986113501],[101.69293653080742,12.70910532872277]],[[101.69126517512815,12.707676887272699],[101.69144918893669,12.707675019140572],[101.6914472860492,12.707494361505823],[101.69163129969874,12.707492493273746],[101.69163510576247,12.707853808485684],[101.6914510918535,12.707855676772592],[101.69145299479958,12.708036334401873],[101.69126898073159,12.70803820258883],[101.69126517512815,12.707676887272699]],[[101.69090475770946,12.708403253995474],[101.69108877209547,12.70840138600843],[101.69109257767383,12.708762701357502],[101.69090856302834,12.708764569399369],[101.69090475770946,12.708403253995474]],[[101.69108686935024,12.708220728329794],[101.69127088357726,12.708218860242791],[101.69127278645222,12.708399517894016],[101.69108877209547,12.70840138600843],[101.69108686935024,12.708220728329794]]],[[[101.69476714832227,12.708183342389233],[101.6947685267233,12.708314037457493],[101.69495306743245,12.708362128857368],[101.6952244134847,12.708540046588308],[101.69550701445579,12.708537173124983],[101.6955085307512,12.708680899107565],[101.69558153599336,12.708717091731124],[101.69587694816887,12.708714087559773],[101.69587853344281,12.708864328993267],[101.69606286835858,12.708892873008343],[101.69606353495801,12.708956043701278],[101.69629578227321,12.70907118026655],[101.69661681688767,12.709067914563084],[101.69661854018125,12.709231186885892],[101.69680273779706,12.709246699331871],[101.6968035421482,12.709322900967617],[101.69701003023646,12.70942526646823],[101.69735668732994,12.709421739077882],[101.69735287269529,12.709060425616963],[101.69716885878744,12.70906229804456],[101.69716695164388,12.708881641282515],[101.69698293783638,12.70888351355526],[101.69698106502702,12.70870609433995],[101.6967970171448,12.708704728880905],[101.69679548621457,12.708559685410755],[101.69661109671266,12.708525944021492],[101.6966099076055,12.708413276307246],[101.6965248170449,12.708346145437307],[101.69624116300425,12.708349030657875],[101.69623925662674,12.708168373747533],[101.69605524319138,12.70817024527354],[101.69605333697295,12.707989588332994],[101.69586932363796,12.707991459704168],[101.69586759520296,12.707827638150166],[101.69568340434398,12.707812673949773],[101.69568201761074,12.707681228175167],[101.69562042858578,12.707632637926597],[101.69531347214586,12.707635758944509],[101.69531156653433,12.707455101885916],[101.69512755347112,12.707456972665257],[101.69512564801863,12.707276315576472],[101.69494163505581,12.707278186200993],[101.69493972976238,12.70709752908202],[101.69457170400815,12.707101269894086],[101.69456979900346,12.706920612717473],[101.69438578621207,12.70692248290502],[101.69438388136642,12.706741825698227],[101.69401585595506,12.70674556563636],[101.69401395139813,12.70656490837194],[101.6936459261289,12.70656864774577],[101.69364441770806,12.706425544564778],[101.69353394529271,12.706389108757753],[101.69309198412607,12.706393598447018],[101.69309039512343,12.706242817258822],[101.6930025088602,12.706213830539632],[101.69253804266694,12.706218547834764],[101.69253637311816,12.706060088632144],[101.69247107296074,12.706038551106289],[101.69198410175159,12.70604349590905],[101.69198235169223,12.705877358684793],[101.69193963759436,12.705863270457762],[101.69124614886853,12.705870310527903],[101.69124805136268,12.706050968214695],[101.6911155156574,12.706052313486161],[101.69106501643044,12.706145685634082],[101.69106784350896,12.706414151392933],[101.69125185643883,12.706412283580066],[101.69125318481066,12.706538418026561],[101.69135887085784,12.706591874254686],[101.69162178505212,12.70658920519603],[101.69162322152064,12.706725583075652],[101.69170905205304,12.70676899614726],[101.69199171409633,12.706766126190166],[101.69199325869438,12.70691274749637],[101.69217763042828,12.706944915221706],[101.69217827745516,12.707006329471083],[101.69240941568945,12.707123238244138],[101.69254756026326,12.707121835254265],[101.69254831532456,12.707193492949203],[101.69275959813066,12.7073003584484],[101.69291749052915,12.707298754664937],[101.69291835365772,12.707380655798893],[101.69310978098719,12.707477478089855],[101.69328742122596,12.7074756734537],[101.69328839245463,12.70756781802013],[101.69347341202699,12.70766139889507],[101.69365735235368,12.707652591620532],[101.69365843171529,12.70775497961289],[101.69381014794622,12.707831715684256],[101.6940272839123,12.707829509165418],[101.69402847143972,12.707942140577153],[101.69421349147584,12.70803572082359],[101.69439721590184,12.708006426088323],[101.6943985116279,12.708129300912892],[101.69451051656651,12.708185951027183],[101.69476714832227,12.708183342389233]]],[[[101.68854417958119,12.711431376706258],[101.68856571799856,12.711498501570809],[101.68856846547435,12.711498473699217],[101.68854417958119,12.711431376706258]]],[[[101.69254946387044,12.707302492729957],[101.69255388019104,12.707302447876197],[101.69254944032048,12.707300257792129],[101.69254946387044,12.707302492729957]]]]}},{"type":"Feature","properties":{"plot":"13-STC","date":"2026-10-07","derived_water_rai":44.5,"valid_pct":44.7,"analysis_status":"PARTIAL","threshold":"MNDWI > 0"},"geometry":{"type":"MultiPolygon","coordinates":[[[[101.69235974015263,12.706762389053859],[101.69235403007188,12.706220416511671],[101.69217001744751,12.706222285061228],[101.69216811427557,12.706041627514269],[101.69180008919831,12.706045364176488],[101.69179818631507,12.705864706571944],[101.69124614886853,12.705870310527903],[101.69125185643883,12.706412283580066],[101.6914358693394,12.70641041563985],[101.69143777205113,12.706591073291017],[101.69180579802381,12.706587336973687],[101.69180770102425,12.706767994567285],[101.69217572713913,12.70676425768569],[101.69217763042828,12.706944915221706],[101.69236164357149,12.706943046562449],[101.69236329633189,12.707099911288696],[101.69254756026326,12.707121835254265],[101.69254375313682,12.706760520294672],[101.69235974015263,12.706762389053859]]],[[[101.69205262973269,12.712547166863],[101.69186861250893,12.712549036117613],[101.69186480466206,12.712187721102817],[101.69149677064571,12.712191459120113],[101.69149867429493,12.712372116683719],[101.69131465711304,12.712373985528664],[101.69131846423986,12.712735300702498],[101.69168649909345,12.712731562775522],[101.69168968541305,12.713033910400855],[101.6919438124445,12.712909625913753],[101.69205262973269,12.712547166863]]],[[[101.68961285280163,12.708055010539795],[101.6897968671332,12.70805314349917],[101.68979496535461,12.707872485623213],[101.68997897952718,12.707870618482621],[101.68997517579837,12.707509302777304],[101.69015918968223,12.707507435564143],[101.69015538581111,12.707146119902692],[101.69033939940626,12.707144252616976],[101.69033559539285,12.706782936999387],[101.69051960869929,12.706781069641124],[101.69051580454361,12.706419754067408],[101.69069981756135,12.7064178866366],[101.69069791539772,12.706237228873047],[101.69088192825649,12.7062353613423],[101.69087812375771,12.705874045861805],[101.69106213632777,12.705872178258527],[101.69106023399262,12.705691520541588],[101.6906922090826,12.705695255565972],[101.69069411115835,12.705875913337733],[101.69051009852971,12.705877780686315],[101.6905139025097,12.706239096276446],[101.69032988959238,12.70624096355249],[101.69033179149659,12.70642162137086],[101.69014777842028,12.706423488546958],[101.69015158205714,12.706784804230294],[101.68996756869213,12.706786671333845],[101.68997137218669,12.707147987061045],[101.68978735853298,12.707149854092037],[101.68978926019447,12.707330511978935],[101.68960524638177,12.707332378909962],[101.68960904953315,12.707693694730349],[101.68942503543175,12.70769556158881],[101.68942693692162,12.7078762195223],[101.68924292266122,12.707878086280788],[101.68924482405066,12.708058744238937],[101.6888767951826,12.708062477428589],[101.68887869634185,12.708243135438783],[101.68851066709728,12.708246868173733],[101.68851256802634,12.708427526235967],[101.68869658279299,12.708425659904792],[101.68869848388105,12.708606317936908],[101.68888249874817,12.708604451450965],[101.68888439999523,12.708785109452958],[101.68943644481014,12.708779509148698],[101.68943264156691,12.708418193306343],[101.68961665618721,12.708416326338295],[101.68961285280163,12.708055010539795]]],[[[101.6896280670466,12.709500273668139],[101.68981208241603,12.709498406408322],[101.6898101804032,12.709317748554252],[101.68962616516352,12.709319615786672],[101.6896280670466,12.709500273668139]]],[[[101.68981398445813,12.709679064259653],[101.68999799992802,12.70967719684505],[101.68999990212916,12.709857854666245],[101.69018391769949,12.70985598709685],[101.69018582005964,12.710036644887905],[101.69036983573044,12.710034777163717],[101.69037173824962,12.710215434924633],[101.69055575402088,12.710213567045646],[101.69055004616196,12.70967159383691],[101.6901820153686,12.709675329303055],[101.69018011306703,12.70949467150653],[101.68981208241603,12.709498406408322],[101.68981398445813,12.709679064259653]]],[[[101.69004366083699,12.714012983798492],[101.69022767939194,12.714011115598819],[101.69022577638754,12.713830457867966],[101.69004175796238,12.713832326040238],[101.69002463340847,12.71220640609278],[101.69020865066564,12.712204538167144],[101.6902048452718,12.711843222647971],[101.69002082827416,12.7118450905188],[101.69001892575093,12.711664432727703],[101.68983490885378,12.711666300443724],[101.68983300648961,12.711485642622492],[101.68964898969293,12.711487510183703],[101.68964708748778,12.71130685233233],[101.68983110415469,12.711304984798517],[101.68982729957271,12.71094366914237],[101.69001131595084,12.710941801535956],[101.69000751122648,12.710580485923664],[101.68963947895998,12.71058422089949],[101.68964328316532,12.71094553662138],[101.68945926672865,12.710947403972996],[101.6894573647411,12.710766746086021],[101.68853728276741,12.71077608079611],[101.688554257904,12.711317940523745],[101.68872700371412,12.711316188090324],[101.68873080685606,12.711677504064266],[101.68891482392887,12.711675637112698],[101.68892243108309,12.71239826891819],[101.68910644864569,12.71239640172964],[101.68910835063718,12.712577059646778],[101.68929236830027,12.712575192303422],[101.68928285798665,12.711671902827334],[101.6890988409724,12.71167377003372],[101.68909693912727,12.7114931121029],[101.68891292221349,12.711494979154486],[101.6889110205274,12.711314321193532],[101.6894630707916,12.711308719738737],[101.68946687497164,12.711670035493537],[101.68965089192736,12.711668168032332],[101.68965469648404,12.71202948372139],[101.68983871367,12.712027616077982],[101.68984442111393,12.712569589508846],[101.68966040353865,12.712571457234457],[101.68966230594874,12.71275211506667],[101.68929427045083,12.712755850190431],[101.68929617263065,12.712936508074705],[101.689112154708,12.712938375472849],[101.68911405678732,12.713119033381778],[101.68929807483974,12.713117165956238],[101.6893037816427,12.713659139584424],[101.68948780005519,12.71365727194927],[101.6894954100548,12.714379903305622],[101.68967942895719,12.714378035433446],[101.68968323439223,12.7147393510404],[101.68986725352494,12.714737482985992],[101.68986535066296,12.714556825211282],[101.69004936963657,12.714554957056835],[101.69004366083699,12.714012983798492]]]]}}]}